DELTA 2 R/B(1)          
1 20453U 90008B   26191.00811265  .00094257  00000+0  59122-3 0  9991
2 20453  35.5999  82.5578 0061393 327.2040  32.4898 15.72802134945297
COSMOS 2058             
1 20465U 90010A   26191.36315229  .00001563  00000+0  88984-4 0  9992
2 20465  82.4673 286.4986 0007815 270.6823  89.3512 15.12142220960778
SL-14 R/B               
1 20466U 90010B   26191.30072696  .00000255  00000+0  28011-4 0  9997
2 20466  82.5032 152.2384 0018208 254.6865 105.2338 14.83661278946669
SL-14 R/B               
1 20511U 90018B   26190.22147486  .00000282  00000+0  32342-4 0  9998
2 20511  82.5223 109.5139 0017412  55.2414 305.0437 14.82231639940584
HST                     
1 20580U 90037B   26191.48125162  .00004570  00000+0  14062-3 0  9993
2 20580  28.4733 281.3383 0001985  60.3837 299.6957 15.31028880792148
SL-16 R/B               
1 20625U 90046B   26190.00383485 -.00000050  00000+0 -14185-5 0  9993
2 20625  70.9983  43.1285 0012487 125.2782 234.9511 14.15022786865555
COSMOS 2084             
1 20663U 90055A   26191.23223861  .00001191  00000+0  94633-4 0  9992
2 20663  62.7903 277.4294 0007489 313.3457  46.7018 15.06213089954778
SL-6 R/B(2)             
1 20666U 90055D   26190.98688816  .00001143  00000+0  95242-4 0  9995
2 20666  62.7799 197.7866 0044299   8.2887 351.8933 15.04074554956587
SL-8 R/B                
1 20775U 90078B   26189.91119699  .00016326  00000+0  46255-3 0  9998
2 20775  82.9023 141.9992 0344547 324.9410  32.9553 14.93408823827367
SL-8 R/B                
1 21088U 91006B   26191.10840330  .00000054  00000+0  38417-4 0  9998
2 21088  82.9416  78.9815 0023666  54.0951 103.6954 13.77508472780924
OKEAN-3                 
1 21397U 91039A   26191.07092050  .00001429  00000+0  97533-4 0  9992
2 21397  82.5136 218.1885 0012020 274.0321  85.9532 15.05417870883443
COSMOS 2151             
1 21422U 91042A   26191.60039306  .00001001  00000+0  77200-4 0  9994
2 21422  82.4977 325.0847 0012421  11.0659 349.0835 15.00505767881624
SL-14 R/B               
1 21423U 91042B   26191.17799425  .00000212  00000+0  23740-4 0  9995
2 21423  82.4936 105.3367 0016534 193.5129 166.5645 14.81916373871215
ERS-1                   
1 21574U 91050A   26190.68519549  .00000154  00000+0  63975-4 0  9992
2 21574  98.7794 211.9326 0031553 198.2061 161.7999 14.39530485833281
ARIANE 40 R/B           
1 21610U 91050F   26191.07068023  .00000149  00000+0  57039-4 0  9991
2 21610  98.1864 238.5948 0004334  72.5548 287.6117 14.42970155836649
INTERCOSMOS 25          
1 21819U 91086A   26191.05795207  .00001040  00000+0  20442-3 0  9998
2 21819  82.6017 235.9699 1484316 213.0142 136.9149 12.12235411511518
SL-8 R/B                
1 21876U 92008B   26190.69063949  .00000127  00000+0  11467-3 0  9998
2 21876  82.9267 177.0557 0035358 151.6373  21.7909 13.75982559726199
SL-8 R/B                
1 21938U 92020B   26191.13344745  .00000023  00000+0  80802-5 0  9993
2 21938  82.9289  62.8117 0028187 318.2654 207.0612 13.75550292717960
USA 81                  
1 21949U 92023A   26190.55894800  .00000106  00000+0  31649-4 0  9991
2 21949  85.0056  61.0934 0002229  66.9776 293.1651 14.32403925112239
COSMOS 2219             
1 22219U 92076A   26190.26063133 -.00000086  00000+0 -20472-4 0  9996
2 22219  71.0616 123.9288 0017874   6.9103 353.2263 14.14110057735562
SL-16 R/B               
1 22220U 92076B   26191.25032900  .00000204  00000+0  12539-3 0  9990
2 22220  71.0007 290.1978 0014983 268.4021 118.8885 14.16875183739191
COSMOS 2221             
1 22236U 92080A   26191.47371794  .00001025  00000+0  87475-4 0  9997
2 22236  82.5042 161.4535 0015431 134.6920 225.5562 14.96595498799150
SL-16 R/B               
1 22285U 92093B   26191.21000503 -.00000097  00000+0 -25133-4 0  9997
2 22285  71.0224 107.0605 0002545 146.2385 213.8900 14.15467002730497
COSMOS 2228             
1 22286U 92094A   26191.60622276  .00001130  00000+0  94082-4 0  9995
2 22286  82.5190 119.6113 0016078 245.9653 113.9888 14.97666880794457
SL-16 R/B               
1 22566U 93016B   26191.33385405 -.00000065  00000+0 -87803-5 0  9993
2 22566  71.0084 317.5908 0009011 146.7754 213.3936 14.15311492719523
COSMOS 2242             
1 22626U 93024A   26191.64326572  .00001086  00000+0  92021-4 0  9992
2 22626  82.5196 149.1014 0014404 249.5342 110.4334 14.96976148798783
SL-16 R/B               
1 22803U 93059B   26190.93443622 -.00000204  00000+0 -77318-4 0  9999
2 22803  70.9907 113.3346 0016371  16.5636 343.6019 14.17250961696851
ARIANE 40 R/B           
1 22830U 93061H   26191.10896805  .00000091  00000+0  49113-4 0  9991
2 22830  98.4808 257.4887 0009446 282.7691  77.2438 14.32917286711635
COSMOS 2278             
1 23087U 94023A   26191.23180504 -.00000186  00000+0 -72577-4 0  9998
2 23087  71.0531 278.7111 0009883 213.1584 146.8921 14.14393857662132
SL-16 R/B               
1 23088U 94023B   26191.43535464 -.00000098  00000+0 -26038-4 0  9993
2 23088  70.9979 173.1077 0001497 145.7011 214.4208 14.15023929663451
SL-16 R/B               
1 23343U 94074B   26190.54390435  .00000256  00000+0  40868-4 0  9992
2 23343  97.6985 216.3325 0006709 171.5538 306.2325 14.79521229705268
SL-16 R/B               
1 23405U 94077B   26190.73309818 -.00000290  00000+0 -12372-3 0  9998
2 23405  70.9829  95.7312 0004058 307.6531  52.4223 14.15575812633504
ARIANE 40+ R/B          
1 23561U 95021B   26191.18813172  .00000136  00000+0  57137-4 0  9990
2 23561  98.4402 260.9298 0007751 129.3535 254.5926 14.39845904636870
SL-16 R/B               
1 23705U 95058B   26191.24062752 -.00000127  00000+0 -40523-4 0  9990
2 23705  71.0215 282.9575 0014608 289.2839  70.6704 14.15508118585199
SL-16 R/B               
1 24298U 96051B   26191.18930947  .00000131  00000+0  97553-4 0  9993
2 24298  70.7650 275.9704 0017400 304.6233  55.3245 14.12454537538948
ORBVIEW 2 (SEASTAR)     
1 24883U 97037A   26190.74182676  .00000148  00000+0  67593-4 0  9996
2 24883  98.8708 358.3882 0003226  71.7834 288.3701 14.35565113525989
SL-16 R/B               
1 25400U 98043G   26191.30600858  .00000011  00000+0  23448-4 0  9990
2 25400  98.8377 145.6657 0010299  25.0584 335.1093 14.26072264456467
SL-16 R/B               
1 25407U 98045B   26191.26206603 -.00000231  00000+0 -92462-4 0  9992
2 25407  71.0120 283.8029 0008430 213.5475 146.5115 14.16207072444459
ISS (ZARYA)             
1 25544U 98067A   26191.34711344  .00005681  00000+0  11131-3 0  9995
2 25544  51.6302 185.4700 0006687 278.6359  81.3872 15.48968037575345
CZ-4B R/B               
1 25732U 99025C   26191.05950940  .00000006  00000+0  23675-4 0  9997
2 25732  98.6473 232.3211 0036928 354.6614  33.4161 14.18287138405515
OKEAN-O                 
1 25860U 99039A   26191.59739231  .00000305  00000+0  46591-4 0  9995
2 25860  97.9304 250.1251 0000989  78.8596 281.2727 14.80494216452571
SL-16 R/B               
1 25861U 99039B   26191.12477792  .00000281  00000+0  42349-4 0  9996
2 25861  97.9825 249.9211 0013938 215.5721 144.4564 14.81867733454996
DELTA 2 R/B             
1 25876U 99041E   26191.32092388  .00001256  00000+0  24015-3 0  9993
2 25876  51.7613 171.3733 0501270 350.3651   8.7936 14.12071111380357
HELIOS 1B               
1 25977U 99064A   26191.44491530  .00000843  00000+0  98063-4 0  9991
2 25977  98.1592  97.2561 0002159  60.2045 299.9385 14.88067995703518
TERRA                   
1 25994U 99068A   26191.59111262  .00000205  00000+0  50692-4 0  9999
2 25994  97.9443 240.2080 0003222 131.9047  12.2545 14.61121418413025
SL-16 R/B               
1 26070U 00006B   26191.02662311 -.00000244  00000+0 -99655-4 0  9990
2 26070  71.0003 200.6011 0016978 347.2271  12.8419 14.15839536365874
TITAN 4B R/B            
1 26474U 00047B   26191.57100939  .00001522  00000+0  98853-4 0  9993
2 26474  67.9872  54.7470 0045944 263.3274  96.2645 15.10319441411461
ENVISAT                 
1 27386U 02009A   26191.34976940  .00000029  00000+0  23408-4 0  9999
2 27386  98.3846 142.1531 0001352  84.3059  63.5741 14.39070079276813
IDEFIX & ARIANE 42P R/B 
1 27422U 02021B   26191.27208050  .00000105  00000+0  56476-4 0  9992
2 27422  98.5942 128.5054 0011586 180.8092 179.3074 14.31092447261555
AQUA                    
1 27424U 02022A   26191.59355655  .00000438  00000+0  96743-4 0  9994
2 27424  98.4292 161.3464 0000810 105.1270 310.2303 14.62192929286693
CZ-4B R/B               
1 27432U 02024C   26191.59859418 -.00000005  00000+0  20325-4 0  9995
2 27432  98.8688 244.2653 0050714  34.9386 110.3090 14.14567773246611
MIDORI II (ADEOS-II)    
1 27597U 02056A   26191.30849168  .00000136  00000+0  71278-4 0  9999
2 27597  98.7892 150.7665 0001680  46.7248 313.4074 14.29361606227811
H-2A R/B                
1 27601U 02056E   26191.65555556  .00000127  00000+0  58694-4 0  9995
2 27601  98.3326 147.4762 0070626 154.3341 200.0518 14.33832351231726
CZ-4B R/B               
1 28059U 03049C   26190.99199359  .00000160  00000+0  48379-4 0  9993
2 28059  98.6906 190.7473 0047336 217.3645 142.4256 14.55113935204384
CZ-2C R/B               
1 28222U 04012C   26189.80327200  .00099446  00000+0  44522-3 0  9992
2 28222  97.7050 268.0571 0011127 210.2414 149.8213 15.83823781223316
SL-16 R/B               
1 28353U 04021B   26191.35481755  .00000168  00000+0  11210-3 0  9997
2 28353  71.0024 335.0662 0006435 229.1860 130.8705 14.14615417140180
CZ-4B R/B               
1 28415U 04035C   26191.07683070  .00005127  00000+0  17194-3 0  9991
2 28415  97.3363 223.8953 0028970 251.7911 108.0176 15.30946600198620
CZ-2C R/B               
1 28480U 04046B   26191.18991296  .00000050  00000+0  33450-4 0  9993
2 28480  98.1925  98.5309 0139855 152.1241 208.7525 14.27032158125975
ARIANE 5 R/B            
1 28499U 04049H   26190.96504801  .00000312  00000+0  41280-4 0  9994
2 28499  98.2737   4.1006 0082885 315.4598  43.9973 14.85475243163948
